QIANFAN-18              
1 60396U 24140T   26063.77600941  .00000116  00000+0  16137-3 0  9994
2 60396  88.9722 290.4876 0013195 317.6586  42.3546 13.51003525 78603
QIANFAN-19              
1 61552U 24185A   26063.79509854  .00000688  00000+0  35212-3 0  9990
2 61552  88.9758  68.5196 0008690  53.0195 307.1786 14.14386253 81263
QIANFAN-20              
1 61553U 24185B   26063.78984873  .00000656  00000+0  37146-3 0  9991
2 61553  88.9755  68.9269 0007902  84.6160 275.5925 14.08932570 81044
QIANFAN-21              
1 61554U 24185C   26063.83177066  .00000865  00000+0  37937-3 0  9996
2 61554  88.9676  67.3447 0013005  94.9830 265.2846 14.22727070 81644
QIANFAN-22              
1 61555U 24185D   26063.78376890  .00000315  00000+0  26067-3 0  9999
2 61555  88.9739  70.2404 0008576 101.9940 258.2193 13.86338294 80303
QIANFAN-23              
1 61556U 24185E   26063.79610528  .00000742  00000+0  36624-3 0  9994
2 61556  88.9750  68.2905 0009616  60.9604 299.2546 14.16391259 81365
QIANFAN-24              
1 61557U 24185F   26063.83553207  .00001022  00000+0  43936-3 0  9996
2 61557  88.9734  67.5567 0010677  41.1591 319.0405 14.23930834 81708
QIANFAN-25              
1 61558U 24185G   26063.78280083  .00000573  00000+0  34129-3 0  9994
2 61558  88.9747  68.8856 0011924  67.6610 292.5835 14.05994245 81033
QIANFAN-26              
1 61559U 24185H   26063.81120657  .00000310  00000+0  29638-3 0  9997
2 61559  88.9745  70.8762 0007652 114.6331 245.5633 13.77861025 79978
QIANFAN-27              
1 61560U 24185J   26063.83889731  .00000721  00000+0  28800-3 0  9992
2 61560  88.9747  67.2998 0008739  34.6283 325.5479 14.27442449 81877
QIANFAN-28              
1 61561U 24185K   26063.77877912  .00001175  00000+0  46595-3 0  9999
2 61561  88.9762  67.3140 0008363  35.7795 324.3958 14.28210785 81885
QIANFAN-29              
1 61562U 24185L   26063.79947410  .00000214  00000+0  31261-3 0  9990
2 61562  88.9717  72.8147 0010288 161.8867 198.2653 13.51043272 78879
QIANFAN-30              
1 61563U 24185M   26063.83650867  .00000210  00000+0  31151-3 0  9997
2 61563  88.9737  72.3678 0008614 145.9099 214.2606 13.50018387 79142
QIANFAN-31              
1 61564U 24185N   26063.83858904  .00000230  00000+0  30124-3 0  9991
2 61564  88.9722  72.0387 0008284 137.4494 222.7305 13.58002733 79303
QIANFAN-32              
1 61565U 24185P   26063.83365457  .00000188  00000+0  27288-3 0  9997
2 61565  88.9781  72.5274 0009642 174.8570 185.2682 13.50763767 79122
QIANFAN-33              
1 61566U 24185Q   26063.79762217  .00000534  00000+0  37553-3 0  9999
2 61566  88.9736  69.6416 0009308  75.5938 284.6272 13.96622222 80617
QIANFAN-34              
1 61567U 24185R   26063.78314807  .00000552  00000+0  35066-3 0  9994
2 61567  88.9712  69.0978 0008294  79.2785 280.9328 14.02382194 80859
