[{"OBJECT_NAME":"QIANFAN-18","OBJECT_ID":"2024-140T","EPOCH":"2026-03-04T18:37:27.213024","MEAN_MOTION":13.51003525,"ECCENTRICITY":0.0013195,"INCLINATION":88.9722,"RA_OF_ASC_NODE":290.4876,"ARG_OF_PERICENTER":317.6586,"MEAN_ANOMALY":42.3546,"EPHEMERIS_TYPE":0,"CLASSIFICATION_TYPE":"U","NORAD_CAT_ID":60396,"ELEMENT_SET_NO":999,"REV_AT_EPOCH":7860,"BSTAR":0.00016137,"MEAN_MOTION_DOT":1.16e-6,"MEAN_MOTION_DDOT":0},{"OBJECT_NAME":"QIANFAN-19","OBJECT_ID":"2024-185A","EPOCH":"2026-03-04T19:04:56.513856","MEAN_MOTION":14.14386253,"ECCENTRICITY":0.000869,"INCLINATION":88.9758,"RA_OF_ASC_NODE":68.5196,"ARG_OF_PERICENTER":53.0195,"MEAN_ANOMALY":307.1786,"EPHEMERIS_TYPE":0,"CLASSIFICATION_TYPE":"U","NORAD_CAT_ID":61552,"ELEMENT_SET_NO":999,"REV_AT_EPOCH":8126,"BSTAR":0.00035212,"MEAN_MOTION_DOT":6.88e-6,"MEAN_MOTION_DDOT":0},{"OBJECT_NAME":"QIANFAN-20","OBJECT_ID":"2024-185B","EPOCH":"2026-03-04T18:57:22.930272","MEAN_MOTION":14.0893257,"ECCENTRICITY":0.0007902,"INCLINATION":88.9755,"RA_OF_ASC_NODE":68.9269,"ARG_OF_PERICENTER":84.616,"MEAN_ANOMALY":275.5925,"EPHEMERIS_TYPE":0,"CLASSIFICATION_TYPE":"U","NORAD_CAT_ID":61553,"ELEMENT_SET_NO":999,"REV_AT_EPOCH":8104,"BSTAR":0.00037146,"MEAN_MOTION_DOT":6.56e-6,"MEAN_MOTION_DDOT":0},{"OBJECT_NAME":"QIANFAN-21","OBJECT_ID":"2024-185C","EPOCH":"2026-03-04T19:57:44.985024","MEAN_MOTION":14.2272707,"ECCENTRICITY":0.0013005,"INCLINATION":88.9676,"RA_OF_ASC_NODE":67.3447,"ARG_OF_PERICENTER":94.983,"MEAN_ANOMALY":265.2846,"EPHEMERIS_TYPE":0,"CLASSIFICATION_TYPE":"U","NORAD_CAT_ID":61554,"ELEMENT_SET_NO":999,"REV_AT_EPOCH":8164,"BSTAR":0.00037937,"MEAN_MOTION_DOT":8.65e-6,"MEAN_MOTION_DDOT":0},{"OBJECT_NAME":"QIANFAN-22","OBJECT_ID":"2024-185D","EPOCH":"2026-03-04T18:48:37.632960","MEAN_MOTION":13.86338294,"ECCENTRICITY":0.0008576,"INCLINATION":88.9739,"RA_OF_ASC_NODE":70.2404,"ARG_OF_PERICENTER":101.994,"MEAN_ANOMALY":258.2193,"EPHEMERIS_TYPE":0,"CLASSIFICATION_TYPE":"U","NORAD_CAT_ID":61555,"ELEMENT_SET_NO":999,"REV_AT_EPOCH":8030,"BSTAR":0.00026067,"MEAN_MOTION_DOT":3.15e-6,"MEAN_MOTION_DDOT":0},{"OBJECT_NAME":"QIANFAN-23","OBJECT_ID":"2024-185E","EPOCH":"2026-03-04T19:06:23.496192","MEAN_MOTION":14.16391259,"ECCENTRICITY":0.0009616,"INCLINATION":88.975,"RA_OF_ASC_NODE":68.2905,"ARG_OF_PERICENTER":60.9604,"MEAN_ANOMALY":299.2546,"EPHEMERIS_TYPE":0,"CLASSIFICATION_TYPE":"U","NORAD_CAT_ID":61556,"ELEMENT_SET_NO":999,"REV_AT_EPOCH":8136,"BSTAR":0.00036624,"MEAN_MOTION_DOT":7.42e-6,"MEAN_MOTION_DDOT":0},{"OBJECT_NAME":"QIANFAN-24","OBJECT_ID":"2024-185F","EPOCH":"2026-03-04T20:03:09.970848","MEAN_MOTION":14.23930834,"ECCENTRICITY":0.0010677,"INCLINATION":88.9734,"RA_OF_ASC_NODE":67.5567,"ARG_OF_PERICENTER":41.1591,"MEAN_ANOMALY":319.0405,"EPHEMERIS_TYPE":0,"CLASSIFICATION_TYPE":"U","NORAD_CAT_ID":61557,"ELEMENT_SET_NO":999,"REV_AT_EPOCH":8170,"BSTAR":0.00043936,"MEAN_MOTION_DOT":1.022e-5,"MEAN_MOTION_DDOT":0},{"OBJECT_NAME":"QIANFAN-25","OBJECT_ID":"2024-185G","EPOCH":"2026-03-04T18:47:13.991712","MEAN_MOTION":14.05994245,"ECCENTRICITY":0.0011924,"INCLINATION":88.9747,"RA_OF_ASC_NODE":68.8856,"ARG_OF_PERICENTER":67.661,"MEAN_ANOMALY":292.5835,"EPHEMERIS_TYPE":0,"CLASSIFICATION_TYPE":"U","NORAD_CAT_ID":61558,"ELEMENT_SET_NO":999,"REV_AT_EPOCH":8103,"BSTAR":0.00034129,"MEAN_MOTION_DOT":5.73e-6,"MEAN_MOTION_DDOT":0},{"OBJECT_NAME":"QIANFAN-26","OBJECT_ID":"2024-185H","EPOCH":"2026-03-04T19:28:08.247648","MEAN_MOTION":13.77861025,"ECCENTRICITY":0.0007652,"INCLINATION":88.9745,"RA_OF_ASC_NODE":70.8762,"ARG_OF_PERICENTER":114.6331,"MEAN_ANOMALY":245.5633,"EPHEMERIS_TYPE":0,"CLASSIFICATION_TYPE":"U","NORAD_CAT_ID":61559,"ELEMENT_SET_NO":999,"REV_AT_EPOCH":7997,"BSTAR":0.00029638,"MEAN_MOTION_DOT":3.1e-6,"MEAN_MOTION_DDOT":0},{"OBJECT_NAME":"QIANFAN-27","OBJECT_ID":"2024-185J","EPOCH":"2026-03-04T20:08:00.727584","MEAN_MOTION":14.27442449,"ECCENTRICITY":0.0008739,"INCLINATION":88.9747,"RA_OF_ASC_NODE":67.2998,"ARG_OF_PERICENTER":34.6283,"MEAN_ANOMALY":325.5479,"EPHEMERIS_TYPE":0,"CLASSIFICATION_TYPE":"U","NORAD_CAT_ID":61560,"ELEMENT_SET_NO":999,"REV_AT_EPOCH":8187,"BSTAR":0.000288,"MEAN_MOTION_DOT":7.21e-6,"MEAN_MOTION_DDOT":0},{"OBJECT_NAME":"QIANFAN-28","OBJECT_ID":"2024-185K","EPOCH":"2026-03-04T18:41:26.515968","MEAN_MOTION":14.28210785,"ECCENTRICITY":0.0008363,"INCLINATION":88.9762,"RA_OF_ASC_NODE":67.314,"ARG_OF_PERICENTER":35.7795,"MEAN_ANOMALY":324.3958,"EPHEMERIS_TYPE":0,"CLASSIFICATION_TYPE":"U","NORAD_CAT_ID":61561,"ELEMENT_SET_NO":999,"REV_AT_EPOCH":8188,"BSTAR":0.00046595,"MEAN_MOTION_DOT":1.175e-5,"MEAN_MOTION_DDOT":0},{"OBJECT_NAME":"QIANFAN-29","OBJECT_ID":"2024-185L","EPOCH":"2026-03-04T19:11:14.562240","MEAN_MOTION":13.51043272,"ECCENTRICITY":0.0010288,"INCLINATION":88.9717,"RA_OF_ASC_NODE":72.8147,"ARG_OF_PERICENTER":161.8867,"MEAN_ANOMALY":198.2653,"EPHEMERIS_TYPE":0,"CLASSIFICATION_TYPE":"U","NORAD_CAT_ID":61562,"ELEMENT_SET_NO":999,"REV_AT_EPOCH":7887,"BSTAR":0.00031261,"MEAN_MOTION_DOT":2.14e-6,"MEAN_MOTION_DDOT":0},{"OBJECT_NAME":"QIANFAN-30","OBJECT_ID":"2024-185M","EPOCH":"2026-03-04T20:04:34.349088","MEAN_MOTION":13.50018387,"ECCENTRICITY":0.0008614,"INCLINATION":88.9737,"RA_OF_ASC_NODE":72.3678,"ARG_OF_PERICENTER":145.9099,"MEAN_ANOMALY":214.2606,"EPHEMERIS_TYPE":0,"CLASSIFICATION_TYPE":"U","NORAD_CAT_ID":61563,"ELEMENT_SET_NO":999,"REV_AT_EPOCH":7914,"BSTAR":0.00031151,"MEAN_MOTION_DOT":2.1e-6,"MEAN_MOTION_DDOT":0},{"OBJECT_NAME":"QIANFAN-31","OBJECT_ID":"2024-185N","EPOCH":"2026-03-04T20:07:34.093056","MEAN_MOTION":13.58002733,"ECCENTRICITY":0.0008284,"INCLINATION":88.9722,"RA_OF_ASC_NODE":72.0387,"ARG_OF_PERICENTER":137.4494,"MEAN_ANOMALY":222.7305,"EPHEMERIS_TYPE":0,"CLASSIFICATION_TYPE":"U","NORAD_CAT_ID":61564,"ELEMENT_SET_NO":999,"REV_AT_EPOCH":7930,"BSTAR":0.00030124,"MEAN_MOTION_DOT":2.3e-6,"MEAN_MOTION_DDOT":0},{"OBJECT_NAME":"QIANFAN-32","OBJECT_ID":"2024-185P","EPOCH":"2026-03-04T20:00:27.754848","MEAN_MOTION":13.50763767,"ECCENTRICITY":0.0009642,"INCLINATION":88.9781,"RA_OF_ASC_NODE":72.5274,"ARG_OF_PERICENTER":174.857,"MEAN_ANOMALY":185.2682,"EPHEMERIS_TYPE":0,"CLASSIFICATION_TYPE":"U","NORAD_CAT_ID":61565,"ELEMENT_SET_NO":999,"REV_AT_EPOCH":7912,"BSTAR":0.00027288,"MEAN_MOTION_DOT":1.88e-6,"MEAN_MOTION_DDOT":0},{"OBJECT_NAME":"QIANFAN-33","OBJECT_ID":"2024-185Q","EPOCH":"2026-03-04T19:08:34.555488","MEAN_MOTION":13.96622222,"ECCENTRICITY":0.0009308,"INCLINATION":88.9736,"RA_OF_ASC_NODE":69.6416,"ARG_OF_PERICENTER":75.5938,"MEAN_ANOMALY":284.6272,"EPHEMERIS_TYPE":0,"CLASSIFICATION_TYPE":"U","NORAD_CAT_ID":61566,"ELEMENT_SET_NO":999,"REV_AT_EPOCH":8061,"BSTAR":0.00037553,"MEAN_MOTION_DOT":5.34e-6,"MEAN_MOTION_DDOT":0},{"OBJECT_NAME":"QIANFAN-34","OBJECT_ID":"2024-185R","EPOCH":"2026-03-04T18:47:43.993248","MEAN_MOTION":14.02382194,"ECCENTRICITY":0.0008294,"INCLINATION":88.9712,"RA_OF_ASC_NODE":69.0978,"ARG_OF_PERICENTER":79.2785,"MEAN_ANOMALY":280.9328,"EPHEMERIS_TYPE":0,"CLASSIFICATION_TYPE":"U","NORAD_CAT_ID":61567,"ELEMENT_SET_NO":999,"REV_AT_EPOCH":8085,"BSTAR":0.00035066,"MEAN_MOTION_DOT":5.52e-6,"MEAN_MOTION_DDOT":0}]
